NORAD_CAT_ID,OBJECT_NAME,OBJECT_TYPE,EPOCH,MEAN_MOTION,ECCENTRICITY,INCLINATION,RA_OF_ASC_NODE,ARG_OF_PERICENTER,MEAN_ANOMALY,BSTAR,MEAN_MOTION_DOT,MEAN_MOTION_DDOT,TLE_LINE0,TLE_LINE1,TLE_LINE2,SEMIMAJOR_AXIS,PERIOD,APOGEE,PERIGEE,DECAYED
52102.0,STARLINK-3709,PAYLOAD,2022-07-31 22:00:00,15.08817144,0.0002037,53.2161,230.3272,41.7191,170.0326,0.0024024,0.0003813,0.0,0 STARLINK-3709,1 52102U 22029Q   22212.91667824  .00038130  00000-0  24024-2 0  9996,2 52102  53.2161 230.3272 0002037  41.7191 170.0326 15.08817144  1306,6917.95,95.439,541.224,538.406,0.0
52102.0,STARLINK-3709,PAYLOAD,2022-08-01 14:00:01,15.08842652,0.0002254,53.2159,227.336,38.9776,195.9526,-0.00011627,-2.139e-05,0.0,0 STARLINK-3709,1 52102U 22029Q   22213.58334491 -.00002139  00000-0 -11627-3 0  9999,2 52102  53.2159 227.3360 0002254  38.9776 195.9526 15.08842652  1305,6917.871999999999,95.437,541.297,538.178,0.0
52102.0,STARLINK-3709,PAYLOAD,2022-08-01 22:00:00,15.0881889,0.0002065999999999,53.216,225.838,43.7272,202.8066,0.0024761999999999,0.00039319,0.0,0 STARLINK-3709,1 52102U 22029Q   22213.91667824  .00039319  00000-0  24762-2 0  9996,2 52102  53.2160 225.8380 0002066  43.7272 202.8066 15.08818890  1302,6917.945,95.439,541.239,538.381,0.0
52102.0,STARLINK-3709,PAYLOAD,2022-08-02 14:00:01,15.08848324,0.0002271,53.2157,222.8468,40.5777,229.1376,-0.00085153,-0.00013818,0.0,0 STARLINK-3709,1 52102U 22029Q   22214.58334491 -.00013818  00000-0 -85153-3 0  9991,2 52102  53.2157 222.8468 0002271  40.5777 229.1376 15.08848324 22242,6917.855,95.437,541.2909999999998,538.149,0.0
52102.0,STARLINK-3709,PAYLOAD,2022-08-03 12:00:00,15.08827798,0.0002364,53.2157,218.7322,41.6734,169.9428,0.0019906,0.00031525,0.0,0 STARLINK-3709,1 52102U 22029Q   22215.50001157  .00031525  00000-0  19906-2 0  9999,2 52102  53.2157 218.7322 0002364  41.6734 169.9428 15.08827798 22389,6917.918000000002,95.438,541.418,538.1469999999998,0.0
52102.0,STARLINK-3709,PAYLOAD,2022-08-03 14:00:01,15.08854324,0.0002329,53.2156,218.3576,41.9831,262.5242,-0.0013435,-0.00021616,0.0,0 STARLINK-3709,1 52102U 22029Q   22215.58334491 -.00021616  00000-0 -13435-2 0  9990,2 52102  53.2156 218.3576 0002329  41.9831 262.5242 15.08854324  1305,6917.837,95.437,541.313,538.09,0.0
52102.0,STARLINK-3709,PAYLOAD,2022-08-03 22:00:01,15.08823469,0.0002214,53.2157,216.8596,47.4222,268.7592,0.0026499,0.00042119,0.0,0 STARLINK-3709,1 52102U 22029Q   22215.91668981  .00042119  00000-0  26499-2 0  9994,2 52102  53.2157 216.8596 0002214  47.4222 268.7592 15.08823469  1301,6917.931,95.439,541.328,538.264,0.0
52102.0,STARLINK-3709,PAYLOAD,2022-08-04 06:00:00,15.08853601,0.0002398,53.2158,215.3649,45.088,282.6261,-0.0012471,-0.00020089,0.0,0 STARLINK-3709,1 52102U 22029Q   22216.25001157 -.00020089  00000-0 -12471-2 0  9997,2 52102  53.2158 215.3649 0002398  45.0880 282.6261 15.08853601 22506,6917.839,95.437,541.363,538.045,0.0
52102.0,STARLINK-3709,PAYLOAD,2022-08-04 14:00:01,15.08861805,0.0002420999999999,53.2157,213.8684,43.1,296.2116,-0.0016347,-0.00026227,0.0,0 STARLINK-3709,1 52102U 22029Q   22216.58334491 -.00026227  00000-0 -16347-2 0  9999,2 52102  53.2157 213.8684 0002421  43.1000 296.2116 15.08861805  1307,6917.814,95.436,541.354,538.004,0.0
52102.0,STARLINK-3709,PAYLOAD,2022-08-04 20:00:01,15.08830948,0.0002292,53.2159,212.7447,46.7553,211.273,0.0018959,0.00030007,0.0,0 STARLINK-3709,1 52102U 22029Q   22216.83334491  .00030007  00000-0  18959-2 0  9997,2 52102  53.2159 212.7447 0002292  46.7553 211.2730 15.08830948 22588,6917.908,95.438,541.359,538.187,0.0
52102.0,STARLINK-3709,PAYLOAD,2022-08-04 22:00:00,15.08838597,0.0002289,53.2158,212.3705,47.9105,303.0156,0.001015,0.00015902,0.0,0 STARLINK-3709,1 52102U 22029Q   22216.91667824  .00015902  00000-0  10150-2 0  9997,2 52102  53.2158 212.3705 0002289  47.9105 303.0156 15.08838597  1309,6917.885,95.438,541.3330000000002,538.1659999999998,0.0
52102.0,STARLINK-3709,PAYLOAD,2022-08-05 14:00:01,15.08842683,0.0002457,53.2159,209.3791,42.6837,331.4868,-0.0018390999999999,-0.00029442,0.0,0 STARLINK-3709,1 52102U 22029Q   22217.58335648 -.00029442  00000-0 -18391-2 0  9998,2 52102  53.2159 209.3791 0002457  42.6837 331.4868 15.08842683  1308,6917.871999999999,95.437,541.437,538.0369999999998,0.0
52102.0,STARLINK-3709,PAYLOAD,2022-08-05 22:00:00,15.08813779,0.0002355,53.2161,207.8814,48.0391,337.6607,0.0024837,0.00039434,0.0,0 STARLINK-3709,1 52102U 22029Q   22217.91667824  .00039434  00000-0  24837-2 0  9991,2 52102  53.2161 207.8814 0002355  48.0391 337.6607 15.08813779  1305,6917.9609999999975,95.439,541.455,538.196,0.0
52102.0,STARLINK-3709,PAYLOAD,2022-08-06 02:39:23,15.08839805,0.0002566999999999,53.2154,207.0107,52.5952,307.5274,-7.3178e-05,-1.453e-05,0.0,0 STARLINK-3709,1 52102U 22029Q   22218.11069390 -.00001453  00000-0 -73178-4 0  9994,2 52102  53.2154 207.0107 0002567  52.5952 307.5274 15.08839805 22781,6917.880999999999,95.438,541.5219999999998,537.97,0.0
52102.0,STARLINK-3709,PAYLOAD,2022-08-06 14:00:01,15.08852832,0.0002549999999999,53.2161,204.89,44.7655,4.1001,-0.0019282,-0.00030857,0.0,0 STARLINK-3709,1 52102U 22029Q   22218.58334491 -.00030857  00000-0 -19282-2 0  9996,2 52102  53.2161 204.8900 0002550  44.7655   4.1001 15.08852832  1308,6917.840999999999,95.437,541.47,537.942,0.0
52102.0,STARLINK-3709,PAYLOAD,2022-08-06 22:00:00,15.08827111,0.0002448,53.2163,203.3924,49.8816,10.5852,0.0021478,0.00034049,0.0,0 STARLINK-3709,1 52102U 22029Q   22218.91667824  .00034049  00000-0  21478-2 0  9997,2 52102  53.2163 203.3924 0002448  49.8816  10.5852 15.08827111  1308,6917.92,95.438,541.4780000000002,538.091,0.0
52102.0,STARLINK-3709,PAYLOAD,2022-08-07 14:00:01,15.08862526,0.000259,53.2161,200.4008,46.8547,36.8021,-0.0020161,-0.00032253,0.0,0 STARLINK-3709,1 52102U 22029Q   22219.58334491 -.00032253  00000-0 -20161-2 0  9997,2 52102  53.2161 200.4008 0002590  46.8547  36.8021 15.08862526 23002,6917.812,95.436,541.4680000000002,537.885,0.0
52102.0,STARLINK-3709,PAYLOAD,2022-08-07 22:00:00,15.08849981,0.0002446,53.2163,198.9033,51.179,44.0897,-0.0010308,-0.00016661,0.0,0 STARLINK-3709,1 52102U 22029Q   22219.91667824 -.00016661  00000-0 -10308-2 0  9990,2 52102  53.2163 198.9033 0002446  51.1790  44.0897 15.08849981  1303,6917.85,95.437,541.4069999999998,538.023,0.0
52102.0,STARLINK-3709,PAYLOAD,2022-08-08 02:20:57,15.08843106,0.0002487,53.2174,198.0906,48.6746,311.446,7.4318e-05,8.95e-06,0.0,0 STARLINK-3709,1 52102U 22029Q   22220.09788523  .00000895  00000-0  74318-4 0  9994,2 52102  53.2174 198.0906 0002487  48.6746 311.4460 15.08843106 23081,6917.871,95.437,541.456,538.015,0.0
52102.0,STARLINK-3709,PAYLOAD,2022-08-08 14:00:01,15.088538,0.0002503,53.2159,195.9115,47.8368,70.6839,-0.0017372,-0.00027841,0.0,0 STARLINK-3709,1 52102U 22029Q   22220.58335648 -.00027841  00000-0 -17372-2 0  9991,2 52102  53.2159 195.9115 0002503  47.8368  70.6839 15.08853800  1309,6917.8380000000025,95.437,541.435,537.972,0.0
52102.0,STARLINK-3709,PAYLOAD,2022-08-08 22:00:00,15.08843016,0.0002389,53.2161,194.4143,52.6069,77.4516,0.0013686,0.00021563,0.0,0 STARLINK-3709,1 52102U 22029Q   22220.91667824  .00021563  00000-0  13686-2 0  9999,2 52102  53.2161 194.4143 0002389  52.6069  77.4516 15.08843016  1306,6917.871,95.437,541.389,538.0830000000002,0.0
52102.0,STARLINK-3709,PAYLOAD,2022-08-09 04:00:00,15.08869381,0.0002483,53.2159,193.2935,48.7874,359.9735,-0.0042242,-0.0006695,0.0,0 STARLINK-3709,1 52102U 22029Q   22221.16667824 -.00066950  00000-0 -42242-2 0  9998,2 52102  53.2159 193.2935 0002483  48.7874 359.9735 15.08869381 23245,6917.791,95.436,541.373,537.938,0.0
52102.0,STARLINK-3709,PAYLOAD,2022-08-09 12:00:00,15.08835334,0.000246,53.2155,191.797,46.5683,13.7891,-0.00079689,-0.00012947,0.0,0 STARLINK-3709,1 52102U 22029Q   22221.50001157 -.00012947  00000-0 -79689-3 0  9990,2 52102  53.2155 191.7970 0002460  46.5683  13.7891 15.08835334 23296,6917.895,95.438,541.461,538.058,0.0
52102.0,STARLINK-3709,PAYLOAD,2022-08-09 14:00:01,15.0884207,0.0002399999999999,53.2156,191.4224,48.5667,104.6847,-0.0017963,-0.00028766,0.0,0 STARLINK-3709,1 52102U 22029Q   22221.58334491 -.00028766  00000-0 -17963-2 0  9990,2 52102  53.2156 191.4224 0002400  48.5667 104.6847 15.08842070  1308,6917.874,95.437,541.399,538.0790000000002,0.0
52102.0,STARLINK-3709,PAYLOAD,2022-08-09 22:00:00,15.08835633,0.0002319999999999,53.2159,189.9254,53.4016,111.4308,1.7456e-05,-1.1e-07,0.0,0 STARLINK-3709,1 52102U 22029Q   22221.91667824 -.00000011  00000-0  17456-4 0  9997,2 52102  53.2159 189.9254 0002320  53.4016 111.4308 15.08835633  1305,6917.894,95.438,541.364,538.154,0.0
52102.0,STARLINK-3709,PAYLOAD,2022-08-10 04:00:00,15.08844411,0.0002460999999999,53.2156,188.8045,50.0723,33.4556,-0.0010562,-0.00017061,0.0,0 STARLINK-3709,1 52102U 22029Q   22222.16667824 -.00017061  00000-0 -10562-2 0  9998,2 52102  53.2156 188.8045 0002461  50.0723  33.4556 15.08844411 23397,6917.8669999999975,95.437,541.434,538.029,0.0
52102.0,STARLINK-3709,PAYLOAD,2022-08-10 14:00:01,15.08853314,0.0002355999999999,53.2155,186.9333,49.9887,138.03,-0.0037625999999999,-0.00059699,0.0,0 STARLINK-3709,1 52102U 22029Q   22222.58334491 -.00059699  00000-0 -37626-2 0  9998,2 52102  53.2155 186.9333 0002356  49.9887 138.0300 15.08853314  1304,6917.84,95.437,541.335,538.075,0.0
52102.0,STARLINK-3709,PAYLOAD,2022-08-10 22:00:00,15.08821897,0.0002302,53.2158,185.4365,54.0974,145.4994,0.00064306,9.956e-05,0.0,0 STARLINK-3709,1 52102U 22029Q   22222.91667824  .00009956  00000-0  64306-3 0  9999,2 52102  53.2158 185.4365 0002302  54.0974 145.4994 15.08821897  1303,6917.936,95.439,541.393,538.2080000000002,0.0
52102.0,STARLINK-3709,PAYLOAD,2022-08-11 14:00:01,15.0884313,0.0002387,53.2158,182.4442,51.1663,171.5813,-0.0015585999999999,-0.00025011,0.0,0 STARLINK-3709,1 52102U 22029Q   22223.58334491 -.00025011  00000-0 -15586-2 0  9991,2 52102  53.2158 182.4442 0002387  51.1663 171.5813 15.08843130  1306,6917.871,95.437,541.387,538.085,0.0
